{
    "links": {
        "self": "http://www.neowsapp.com/rest/v1/neo/54075303?api_key=iIulBulltgU6a56xZRHN4H3l9WmuAYTsLGpBGhQ2"
    },
    "id": "54075303",
    "neo_reference_id": "54075303",
    "name": "(2020 UE1)",
    "designation": "2020 UE1",
    "nasa_jpl_url": "http://ssd.jpl.nasa.gov/sbdb.cgi?sstr=54075303",
    "absolute_magnitude_h": 25.687,
    "estimated_diameter": {
        "kilometers": {
            "estimated_diameter_min": 0.0193711309,
            "estimated_diameter_max": 0.0433151656
        },
        "meters": {
            "estimated_diameter_min": 19.3711309328,
            "estimated_diameter_max": 43.3151655668
        },
        "miles": {
            "estimated_diameter_min": 0.012036659,
            "estimated_diameter_max": 0.0269147877
        },
        "feet": {
            "estimated_diameter_min": 63.5535812096,
            "estimated_diameter_max": 142.1101277983
        }
    },
    "is_potentially_hazardous_asteroid": false,
    "close_approach_data": [
        {
            "close_approach_date": "2020-10-13",
            "close_approach_date_full": "2020-Oct-13 01:18",
            "epoch_date_close_approach": 1602551880000,
            "relative_velocity": {
                "kilometers_per_second": "8.9282169991",
                "kilometers_per_hour": "32141.58119662",
                "miles_per_hour": "19971.5286051998"
            },
            "miss_distance": {
                "astronomical": "0.0285811036",
                "lunar": "11.1180493004",
                "kilometers": "4275672.220809332",
                "miles": "2656779.5215075016"
            },
            "orbiting_body": "Earth"
        }
    ],
    "orbital_data": {
        "orbit_id": "6",
        "orbit_determination_date": "2020-10-24 07:47:14",
        "first_observation_date": "2020-10-15",
        "last_observation_date": "2020-10-23",
        "data_arc_in_days": 8,
        "observations_used": 45,
        "orbit_uncertainty": "8",
        "minimum_orbit_intersection": ".00336328",
        "jupiter_tisserand_invariant": "3.222",
        "epoch_osculation": "2459142.5",
        "eccentricity": ".5934744422777287",
        "semi_major_axis": "2.45927270901806",
        "inclination": ".2115557266193682",
        "ascending_node_longitude": "72.46051536456723",
        "orbital_period": "1408.667394623574",
        "perihelion_distance": ".9997572096247279",
        "perihelion_argument": "287.6484380710915",
        "aphelion_distance": "3.918788208411392",
        "perihelion_time": "2459120.273278596985",
        "mean_anomaly": "5.680276079097864",
        "mean_motion": ".2555606819423826",
        "equinox": "J2000",
        "orbit_class": {
            "orbit_class_type": "APO",
            "orbit_class_description": "Near-Earth asteroid orbits which cross the Earth’s orbit similar to that of 1862 Apollo",
            "orbit_class_range": "a (semi-major axis) > 1.0 AU; q (perihelion) < 1.017 AU"
        }
    },
    "is_sentry_object": false
}